STARLINK-31387          
1 59407U 24064K   24112.16667824 -.01687522  00000+0 -26705-1 0  9994
2 59407  43.0002  13.0394 0001861 267.6590 111.7982 15.55659231  3685
STARLINK-31367          
1 59408U 24064L   24112.16667824 -.01629350  00000+0 -15026-1 0  9994
2 59408  43.0005  12.2342 0002139 261.3588  80.9818 15.69688511  3694
STARLINK-31396          
1 59409U 24064M   24112.16667824 -.01686485  00000+0 -26694-1 0  9990
2 59409  43.0001  13.0296 0001885 264.5572 118.7795 15.55651663  3623
STARLINK-31412          
1 59410U 24064N   24112.16667824 -.01685666  00000+0 -26683-1 0  9990
2 59410  43.0001  13.0246 0001974 269.2871 115.9894 15.55647336  3680
STARLINK-31483          
1 59411U 24064P   24112.16667824 -.01685337  00000+0 -26681-1 0  9994
2 59411  43.0001  13.0196 0001992 271.5467 115.6699 15.55643350  3684
STARLINK-31568          
1 59412U 24064Q   24112.16667824 -.01687036  00000+0 -26715-1 0  9991
2 59412  43.0000  13.0146 0001860 267.5645 121.5925 15.55640609  3688
STARLINK-31615          
1 59413U 24064R   24112.16667824 -.01687048  00000+0 -26719-1 0  9999
2 59413  43.0002  13.0097 0001828 267.9187 123.1771 15.55637111  3686
STARLINK-31457          
1 59414U 24064S   24112.16667824  .00217319  00000+0  25548-2 0  9997
2 59414  43.0002  12.9835 0002648 243.7384 157.6840 15.59954459  3687
STARLINK-31398          
1 59415U 24064T   24112.16667824 -.01686873  00000+0 -26723-1 0  9991
2 59415  43.0000  12.9996 0001854 268.0340 126.9410 15.55629750  3685
STARLINK-31399          
1 59416U 24064U   24112.16667824 -.01682706  00000+0 -26656-1 0  9998
2 59416  43.0000  12.9948 0001886 273.9093 123.0068 15.55622812  3687
STARLINK-31401          
1 59417U 24064V   24112.16667824 -.01681102  00000+0 -26632-1 0  9992
2 59417  43.0002  12.9907 0001885 273.8686 124.9863 15.55618467  3472
STARLINK-31414          
1 59418U 24064W   24112.16667824 -.01685944  00000+0 -26718-1 0  9996
2 59418  43.0001  12.9854 0001859 269.6491 131.1444 15.55618275  3686
STARLINK-31415          
1 59419U 24064X   24111.91667824 -.01759545  00000+0 -27021-1 0  9996
2 59419  43.0000  14.4542 0002321 264.3974 176.1608 15.56587379  3671
STARLINK-31466          
1 59420U 24064Y   24112.16667824 -.01685845  00000+0 -26723-1 0  9995
2 59420  43.0003  12.9756 0001909 271.5957 133.0770 15.55611029  3680
STARLINK-11087 [DTC]    
1 59421U 24065A   24111.93213418  .00054665  00000+0  42256-3 0  9995
2 59421  53.1585 253.7699 0000685 149.6449 210.4610 15.71385894  3364
STARLINK-11090 [DTC]    
1 59422U 24065B   24111.99317479  .00176034  00000+0  13280-2 0  9993
2 59422  53.1584 253.4418 0000423  60.3886 299.7174 15.71437728  3385
STARLINK-11093 [DTC]    
1 59423U 24065C   24111.99054676  .00078236  00000+0  60082-3 0  9999
2 59423  53.1580 253.4275 0001950  86.5726 273.5516 15.71395069  3372
STARLINK-11083 [DTC]    
1 59424U 24065D   24111.92426172  .00859362  00000+0  59430-2 0  9998
2 59424  53.1574 253.7292 0000441  52.4888 307.6171 15.71837110  3311
STARLINK-11085 [DTC]    
1 59425U 24065E   24111.98508805  .00725469  00000+0  49664-2 0  9997
2 59425  53.1613 253.3959 0000453  32.0082 328.0964 15.72093335  3327
STARLINK-11089 [DTC]    
1 59426U 24065F   24112.16667824 -.00809055  00000+0 -59504-2 0  9996
2 59426  53.1719 252.0989 0000961  66.8079  79.4010 15.74653138  3413
STARLINK-31757          
1 59427U 24065G   24111.91667824  .00045823  00000+0  10335-2 0  9991
2 59427  53.1593 254.7418 0000379  51.0848 139.8695 15.42808735  3389
STARLINK-31752          
1 59428U 24065H   24112.16667824  .00026271  00000+0  47766-3 0  9995
2 59428  53.1595 253.5117 0000936  90.7212  73.6826 15.49377967  3408
STARLINK-31773          
1 59429U 24065J   24112.16667824 -.00023700  00000+0 -41862-3 0  9993
2 59429  53.1600 253.5049 0001935  58.3240 108.1359 15.49355309  3402
STARLINK-31772          
1 59430U 24065K   24112.16667824 -.00069526  00000+0 -12499-2 0  9994
2 59430  53.1601 253.5006 0001631  49.1897 119.2294 15.49381209  3406
STARLINK-31613          
1 59431U 24065L   24112.16667824 -.00022189  00000+0 -39142-3 0  9994
2 59431  53.1600 253.4966 0001939  75.0358  95.3612 15.49350241  3401
STARLINK-31780          
1 59432U 24065M   24112.16667824 -.00103916  00000+0 -18786-2 0  9993
2 59432  53.1601 253.4926 0001790  53.5394 118.7927 15.49407277  3406
STARLINK-31740          
1 59433U 24065N   24111.91667824 -.02137318  00000+0 -49088-1 0  9999
2 59433  53.1595 254.6933 0001481  37.4726 177.8044 15.45783155  3388
STARLINK-31580          
1 59434U 24065P   24112.16667824 -.02547529  00000+0 -50737-1 0  9990
2 59434  53.1602 253.4847 0002059  28.0372 148.1834 15.49876661  3404
STARLINK-31696          
1 59435U 24065Q   24112.16667824 -.00159237  00000+0 -28970-2 0  9999
2 59435  53.1601 253.4808 0002536  26.8415 151.3291 15.49466215  3408
STARLINK-31700          
1 59436U 24065R   24112.16667824 -.00107545  00000+0 -19461-2 0  9990
2 59436  53.1602 253.4767 0001543  63.7197 116.4875 15.49397632  3404
STARLINK-31706          
1 59437U 24065S   24112.16667824 -.00153418  00000+0 -27899-2 0  9995
2 59437  53.1601 253.4727 0001194  76.7990 105.3050 15.49459689  3400
STARLINK-31711          
1 59438U 24065T   24112.16667824 -.00126595  00000+0 -22944-2 0  9998
2 59438  53.1602 253.4689 0001555  60.8223 123.2584 15.49439815  3403
STARLINK-31708          
1 59439U 24065U   24112.16667824 -.00101897  00000+0 -18416-2 0  9996
2 59439  53.1602 253.4609 0001288  64.5045 123.5395 15.49406624  3407
STARLINK-31682          
1 59440U 24065V   24111.98204520  .00504939  00000+0  33475-2 0  9991
2 59440  53.1592 253.3780 0001103  43.1971 316.9135 15.73495362  3384
STARLINK-31693          
1 59441U 24065W   24112.16667824 -.00067942  00000+0 -12214-2 0  9991
2 59441  53.1600 253.4573 0001276  90.9690  99.0704 15.49372525  3407
TSAT-1A                 
1 59442U 24066A   24111.89175009  .00006121  00000+0  62216-3 0  9999
2 59442  45.6107   8.4640 0004820 175.4051 184.6872 14.91605641  1923
HAWK-8A                 
1 59443U 24066B   24110.75110625  .00018461  00000+0  18145-2 0  9998
2 59443  45.6112  14.2687 0004587 182.8616 177.2237 14.91958959  1752
CAPELLA-14 (ACADIA)     
1 59444U 24066C   24111.28555290  .00006512  00000+0  65500-3 0  9991
2 59444  45.6108  11.5156 0005471 193.1921 166.8816 14.91945942  1829
HAWK-8B                 
1 59445U 24066D   24112.02365001  .00008729  00000+0  87111-3 0  9998
2 59445  45.6134   7.7677 0004793 187.3645 172.7163 14.91920018  1938
HAWK-9A                 
1 59446U 24066E   24111.88825616  .00007068  00000+0  70735-3 0  9994
2 59446  45.6121   8.4441 0004200 195.3209 164.7543 14.92043969  1913
2024-066F               
1 59447U 24066F   24111.08380222  .00014444  00000+0  14170-2 0  9992
2 59447  45.6116  12.5431 0004013 197.6530 162.4209 14.92186456  1796
HAWK-9C                 
1 59448U 24066G   24111.82218859  .00007921  00000+0  78972-3 0  9994
2 59448  45.6095   8.7930 0004799 187.4496 172.6312 14.92060729  1908
HAWK-8C                 
1 59449U 24066H   24112.15520361  .00004546  00000+0  46264-3 0  9995
2 59449  45.6099   7.0613 0004408 210.4226 149.6397 14.92040986  1953
HAWK-9B                 
1 59450U 24066J   24111.88844760  .00009663  00000+0  95834-3 0  9990
2 59450  45.6158   8.4458 0004467 193.6533 166.4225 14.92071736  1911
CENTAURI-6              
1 59451U 24066K   24111.88424479  .00010253  00000+0  10037-2 0  9990
2 59451  45.6072   8.4051 0005328 220.1674 139.8811 14.92531682  1922
425SAT-1                
1 59452U 24066L   24112.15754344  .00014307  00000+0  11632-2 0  9995
2 59452  45.4153   5.5655 0005079  58.2643 301.8729 14.99543598  1967
STARLINK-31617          
1 59455U 24068A   24112.16667824 -.00894905  00000+0 -56383-2 0  9991
2 59455  43.0032 353.6311 0002003 275.3360 158.0224 15.78112425  2960
STARLINK-31622          
1 59456U 24068B   24111.91667824 -.00975520  00000+0 -60489-2 0  9999
2 59456  43.0027 355.1451 0001869 271.0731 184.0769 15.78679129  2930
STARLINK-31319          
1 59457U 24068C   24112.16667824 -.00902784  00000+0 -56872-2 0  9991
2 59457  43.0031 353.6261 0002170 272.5800 162.7067 15.78134477  2955
STARLINK-31625          
1 59458U 24068D   24111.91667824 -.00981532  00000+0 -60888-2 0  9994
2 59458  43.0026 355.1397 0001957 271.9641 185.2901 15.78684868  2934
STARLINK-31631          
1 59459U 24068E   24111.91667824 -.00988332  00000+0 -61359-2 0  9994
2 59459  43.0025 355.1342 0001876 270.7180 188.7032 15.78686478  2931
STARLINK-31620          
1 59460U 24068F   24111.91667824 -.00996047  00000+0 -61904-2 0  9994
2 59460  43.0025 355.1286 0001827 268.2197 193.3984 15.78684446  2937
STARLINK-31482          
1 59461U 24068G   24111.91667824  .00607802  15137-3  18854-2 0  9998
2 59461  43.0021 354.9018 0003667 236.1411 315.8508 15.90819811  2934
STARLINK-31511          
1 59462U 24068H   24111.91667824 -.01036018  00000+0 -63509-2 0  9993
2 59462  43.0024 355.1119 0001767 272.1917 195.9742 15.78678945  2937
STARLINK-31364          
1 59463U 24068J   24111.91667824 -.01029865  00000+0 -63100-2 0  9993
2 59463  43.0025 355.1173 0001838 268.8307 197.2331 15.78675524  2932
STARLINK-31597          
1 59464U 24068K   24111.91667824 -.01044633  00000+0 -64107-2 0  9992
2 59464  43.0024 355.1063 0001888 270.8271 199.5667 15.78673102  2878
STARLINK-31621          
1 59465U 24068L   24111.91667824 -.01049163  00000+0 -64378-2 0  9996
2 59465  43.0025 355.1011 0001778 272.0753 200.3165 15.78686749  2932
STARLINK-31462          
1 59466U 24068M   24112.16667824 -.00859433  00000+0 -44139-2 0  9996
2 59466  43.0022 353.3264 0002101 274.7921 279.2657 15.82425567  2965
